NORAD_CAT_ID,OBJECT_NAME,OBJECT_TYPE,EPOCH,MEAN_MOTION,ECCENTRICITY,INCLINATION,RA_OF_ASC_NODE,ARG_OF_PERICENTER,MEAN_ANOMALY,BSTAR,MEAN_MOTION_DOT,MEAN_MOTION_DDOT,TLE_LINE0,TLE_LINE1,TLE_LINE2,SEMIMAJOR_AXIS,PERIOD,APOGEE,PERIGEE,DECAYED
52091.0,STARLINK-3713,PAYLOAD,2024-08-02 04:27:17,15.08834742,0.0001472,53.2167,193.0589,90.5727,269.5434,5.9614e-05,6.61e-06,0.0,0 STARLINK-3713,1 52091U 22029D   24215.18561821  .00000661  00000-0  59614-4 0  9990,2 52091  53.2167 193.0589 0001472  90.5727 269.5434 15.08834742132418,6917.896,95.438,540.78,538.743,0.0
52091.0,STARLINK-3713,PAYLOAD,2024-08-02 07:38:03,15.08837468,0.0001489,53.2166,192.4643,90.9238,269.1925,8.1776e-05,1.014e-05,0.0,0 STARLINK-3713,1 52091U 22029D   24215.31809622  .00001014  00000-0  81776-4 0  9996,2 52091  53.2166 192.4643 0001489  90.9238 269.1925 15.08837468132431,6917.888,95.438,540.783,538.723,0.0
52091.0,STARLINK-3713,PAYLOAD,2024-08-03 04:18:03,15.08900384,0.0001218,53.2171,188.5992,98.1172,261.9958,-0.00092363,-0.00014982,0.0,0 STARLINK-3713,1 52091U 22029D   24216.17920901 -.00014982  00000-0 -92363-3 0  9998,2 52091  53.2171 188.5992 0001218  98.1172 261.9958 15.08900384132565,6917.696,95.434,540.403,538.718,0.0
52091.0,STARLINK-3713,PAYLOAD,2024-08-03 07:28:51,15.08828054,0.0001494,53.2169,188.004,89.6612,270.4551,-5.8565e-05,-1.22e-05,0.0,0 STARLINK-3713,1 52091U 22029D   24216.31170960 -.00001220  00000-0 -58565-4 0  9994,2 52091  53.2169 188.0040 0001494  89.6612 270.4551 15.08828054132580,6917.917,95.438,540.815,538.748,0.0
52091.0,STARLINK-3713,PAYLOAD,2024-08-03 15:25:47,15.08831104,0.0001489,53.2166,186.5176,87.6643,272.4519,-5.5257e-05,-1.167e-05,0.0,0 STARLINK-3713,1 52091U 22029D   24216.64290953 -.00001167  00000-0 -55257-4 0  9990,2 52091  53.2166 186.5176 0001489  87.6643 272.4519 15.08831104132638,6917.908,95.438,540.803,538.743,0.0
52091.0,STARLINK-3713,PAYLOAD,2024-08-04 04:08:52,15.08835852,0.0001374,53.2164,184.1367,91.9107,268.2043,1.3292e-05,-7.6e-07,0.0,0 STARLINK-3713,1 52091U 22029D   24217.17282618 -.00000076  00000-0  13292-4 0  9998,2 52091  53.2164 184.1367 0001374  91.9107 268.2043 15.08835852132716,6917.893,95.438,540.709,538.808,0.0
52091.0,STARLINK-3713,PAYLOAD,2024-08-04 21:38:06,15.088389,0.000136,53.217,180.8655,92.5715,267.5433,0.00017959,2.571e-05,0.0,0 STARLINK-3713,1 52091U 22029D   24217.90145949  .00002571  00000-0  17959-3 0  9998,2 52091  53.2170 180.8655 0001360  92.5715 267.5433 15.08838900132827,6917.884,95.438,540.69,538.808,0.0
52091.0,STARLINK-3713,PAYLOAD,2024-08-05 03:59:38,15.0884632,0.0001346,53.2166,179.6771,90.3059,269.8087,0.00023184,3.404e-05,0.0,0 STARLINK-3713,1 52091U 22029D   24218.16641401  .00003404  00000-0  23184-3 0  9994,2 52091  53.2166 179.6771 0001346  90.3059 269.8087 15.08846320132867,6917.861,95.437,540.657,538.795,0.0
52091.0,STARLINK-3713,PAYLOAD,2024-08-06 03:50:26,15.0883532,0.0001542,53.2172,175.2141,101.4797,258.6369,1.4565e-05,-5.6e-07,0.0,0 STARLINK-3713,1 52091U 22029D   24219.16002687 -.00000056  00000-0  14565-4 0  9997,2 52091  53.2172 175.2141 0001542 101.4797 258.6369 15.08835320133013,6917.895,95.438,540.826,538.693,0.0
52091.0,STARLINK-3713,PAYLOAD,2024-08-07 02:05:49,15.08847341,0.0001598,53.2165,171.0487,105.7534,254.3635,-4.763e-05,-1.046e-05,0.0,0 STARLINK-3713,1 52091U 22029D   24220.08737947 -.00001046  00000-0 -47630-4 0  9994,2 52091  53.2165 171.0487 0001598 105.7534 254.3635 15.08847341133159,6917.858,95.437,540.828,538.617,0.0
52091.0,STARLINK-3713,PAYLOAD,2024-08-08 06:42:46,15.08840127,0.000141,53.2171,165.7019,100.727,259.3881,0.00010883,1.445e-05,0.0,0 STARLINK-3713,1 52091U 22029D   24221.27969943  .00001445  00000-0  10883-3 0  9999,2 52091  53.2171 165.7019 0001410 100.7270 259.3881 15.08840127133335,6917.88,95.438,540.72,538.77,0.0
52091.0,STARLINK-3713,PAYLOAD,2024-08-09 12:55:05,15.08851136,0.0001381,53.2177,160.0503,74.6073,285.5071,0.00013715,1.896e-05,0.0,0 STARLINK-3713,1 52091U 22029D   24222.53825260  .00001896  00000-0  13715-3 0  9999,2 52091  53.2177 160.0503 0001381  74.6073 285.5071 15.08851136133529,6917.846,95.437,540.667,538.756,0.0
52091.0,STARLINK-3713,PAYLOAD,2024-08-10 04:48:57,15.08839858,0.0001235,53.2169,157.0778,87.867,272.2463,5.8332e-05,6.41e-06,0.0,0 STARLINK-3713,1 52091U 22029D   24223.20066335  .00000641  00000-0  58332-4 0  9996,2 52091  53.2169 157.0778 0001235  87.8670 272.2463 15.08839858133623,6917.881,95.438,540.6,538.891,0.0
52091.0,STARLINK-3713,PAYLOAD,2024-08-11 03:04:20,15.08849932,0.0001321,53.2174,152.9154,91.4438,268.6706,0.00013236,1.82e-05,0.0,0 STARLINK-3713,1 52091U 22029D   24224.12801668  .00001820  00000-0  13236-3 0  9997,2 52091  53.2174 152.9154 0001321  91.4438 268.6706 15.08849932133768,6917.85,95.437,540.629,538.801,0.0
52091.0,STARLINK-3713,PAYLOAD,2024-08-11 12:36:37,15.08870579,0.0001466,53.2179,151.13,71.4089,288.7062,0.00022198,3.249e-05,0.0,0 STARLINK-3713,1 52091U 22029D   24224.52543822  .00003249  00000-0  22198-3 0  9990,2 52091  53.2179 151.1300 0001466  71.4089 288.7062 15.08870579133823,6917.787,95.436,540.666,538.638,0.0
52091.0,STARLINK-3713,PAYLOAD,2024-08-11 18:58:12,15.08827979,0.0001724,53.2171,149.9422,73.8088,286.3094,1.6742e-05,-2.2e-07,0.0,0 STARLINK-3713,1 52091U 22029D   24224.79042711 -.00000022  00000-0  16742-4 0  9996,2 52091  53.2171 149.9422 0001724  73.8088 286.3094 15.08827979133866,6917.917,95.438,540.975,538.589,0.0
52091.0,STARLINK-3713,PAYLOAD,2024-08-12 01:19:45,15.08839389,0.0001609,53.2169,148.7523,87.981,272.1366,0.00017134,2.44e-05,0.0,0 STARLINK-3713,1 52091U 22029D   24225.05538456  .00002440  00000-0  17134-3 0  9992,2 52091  53.2169 148.7523 0001609  87.9810 272.1366 15.08839389133901,6917.882,95.438,540.86,538.634,0.0
52091.0,STARLINK-3713,PAYLOAD,2024-08-12 12:27:25,15.08869534,0.0001423,53.2167,146.6703,92.6816,267.4339,0.00047465,7.28e-05,0.0,0 STARLINK-3713,1 52091U 22029D   24225.51904321  .00007280  00000-0  47465-3 0  9998,2 52091  53.2167 146.6703 0001423  92.6816 267.4339 15.08869534133978,6917.79,95.436,540.64,538.671,0.0
52091.0,STARLINK-3713,PAYLOAD,2024-08-12 21:59:44,15.08849942,0.0001389,53.2162,144.8869,95.4865,264.6286,-9.3422e-06,-4.37e-06,0.0,0 STARLINK-3713,1 52091U 22029D   24225.91648869 -.00000437  00000-0 -93422-5 0  9999,2 52091  53.2162 144.8869 0001389  95.4865 264.6286 15.08849942134031,6917.85,95.437,540.676,538.754,0.0
52091.0,STARLINK-3713,PAYLOAD,2024-08-13 01:10:30,15.08853684,0.0001446,53.2166,144.2921,97.1653,262.9504,7.4243e-05,8.94e-06,0.0,0 STARLINK-3713,1 52091U 22029D   24226.04896632  .00000894  00000-0  74243-4 0  9991,2 52091  53.2166 144.2921 0001446  97.1653 262.9504 15.08853684134050,6917.839,95.437,540.704,538.703,0.0
52091.0,STARLINK-3713,PAYLOAD,2024-08-13 18:39:46,15.08828045,0.0001246,53.2148,141.0212,93.86,266.2534,-6.0349e-05,-1.248e-05,0.0,0 STARLINK-3713,1 52091U 22029D   24226.77761973 -.00001248  00000-0 -60349-4 0  9998,2 52091  53.2148 141.0212 0001246  93.8600 266.2534 15.08828045134166,6917.917,95.438,540.644,538.92,0.0
52091.0,STARLINK-3713,PAYLOAD,2024-08-13 21:50:33,15.08819205,0.0001426,53.2159,140.4224,104.3179,255.7971,-0.00020159,-3.493e-05,0.0,0 STARLINK-3713,1 52091U 22029D   24226.91010455 -.00003493  00000-0 -20159-3 0  9994,2 52091  53.2159 140.4224 0001426 104.3179 255.7971 15.08819205134181,6917.944,95.439,540.795,538.822,0.0
52091.0,STARLINK-3713,PAYLOAD,2024-08-14 04:12:07,15.08797859,0.0001378,53.216,139.2357,100.8565,259.2582,-0.00048452,-7.982e-05,0.0,0 STARLINK-3713,1 52091U 22029D   24227.17508190 -.00007982  00000-0 -48452-3 0  9994,2 52091  53.2160 139.2357 0001378 100.8565 259.2582 15.08797859134224,6918.009,95.44,540.828,538.921,0.0
52091.0,STARLINK-3713,PAYLOAD,2024-08-14 21:41:21,15.08808987,0.0001125,53.2168,135.9697,120.8809,239.2294,-8.0386e-05,-1.566e-05,0.0,0 STARLINK-3713,1 52091U 22029D   24227.90372461 -.00001566  00000-0 -80386-4 0  9990,2 52091  53.2168 135.9697 0001125 120.8809 239.2294 15.08808987134330,6917.975,95.44,540.618,539.062,0.0
52091.0,STARLINK-3713,PAYLOAD,2024-08-15 00:52:06,15.08848957,0.000129,53.2168,135.3715,109.2296,250.8835,0.00048635,7.463e-05,0.0,0 STARLINK-3713,1 52091U 22029D   24228.03618922  .00007463  00000-0  48635-3 0  9990,2 52091  53.2168 135.3715 0001290 109.2296 250.8835 15.08848957134352,6917.853,95.437,540.61,538.826,0.0
52091.0,STARLINK-3713,PAYLOAD,2024-08-15 10:24:24,15.08870096,0.0001261,53.2165,133.5861,112.4994,247.6131,0.00079227,0.00012354,0.0,0 STARLINK-3713,1 52091U 22029D   24228.43361375  .00012354  00000-0  79227-3 0  9997,2 52091  53.2165 133.5861 0001261 112.4994 247.6131 15.08870096134419,6917.788,95.436,540.526,538.781,0.0
52091.0,STARLINK-3713,PAYLOAD,2024-08-15 21:32:08,15.0881901,9.64e-05,53.2158,131.5006,118.4385,241.6704,3.7768e-05,3.13e-06,0.0,0 STARLINK-3713,1 52091U 22029D   24228.89731877  .00000313  00000-0  37768-4 0  9992,2 52091  53.2158 131.5006 0000964 118.4385 241.6704 15.08819010134485,6917.945,95.439,540.476,539.143,0.0
52091.0,STARLINK-3713,PAYLOAD,2024-08-16 00:42:54,15.08824926,0.0001347,53.217,130.9119,132.2522,227.8585,0.00013601,1.877e-05,0.0,0 STARLINK-3713,1 52091U 22029D   24229.02979880  .00001877  00000-0  13601-3 0  9991,2 52091  53.2170 130.9119 0001347 132.2522 227.8585 15.08824926134508,6917.926,95.439,540.723,538.86,0.0
52091.0,STARLINK-3713,PAYLOAD,2024-08-16 21:22:54,15.08848992,0.0001498,53.2166,127.0462,134.471,225.6404,-0.00015696,-2.786e-05,0.0,0 STARLINK-3713,1 52091U 22029D   24229.89090991 -.00002786  00000-0 -15696-3 0  9991,2 52091  53.2166 127.0462 0001498 134.4710 225.6404 15.08848992134630,6917.853,95.437,540.754,538.682,0.0
52091.0,STARLINK-3713,PAYLOAD,2024-08-17 02:09:03,15.0885416,0.0001453,53.2164,126.1542,136.3046,223.8061,-2.8245e-05,-7.38e-06,0.0,0 STARLINK-3713,1 52091U 22029D   24230.08962660 -.00000738  00000-0 -28245-4 0  9995,2 52091  53.2164 126.1542 0001453 136.3046 223.8061 15.08854160134667,6917.837,95.437,540.707,538.697,0.0
